QZS-1R                  
1 49336U 21096A   24189.60327316 -.00000311  00000+0  00000+0 0  9999
2 49336  35.9849  90.2184 0757440 271.9126 273.9398  1.00252126  9890
